{"type":"FeatureCollection", "features": [
{"type":"Feature","geometry":{"type":"Polygon","coordinates":[[[6.128,49.893],[6.121,49.889],[6.118,49.877],[6.132,49.876],[6.13,49.864],[6.141,49.861],[6.148,49.857],[6.146,49.853],[6.153,49.847],[6.153,49.844],[6.144,49.84],[6.143,49.836],[6.163,49.843],[6.156,49.843],[6.158,49.856],[6.164,49.862],[6.176,49.865],[6.18,49.872],[6.175,49.877],[6.165,49.882],[6.155,49.884],[6.147,49.89],[6.145,49.896],[6.137,49.898],[6.128,49.893]]]},"properties":{"LAU2":"0603","COMMUNE":"Diekirch","CANTON":"Diekirch"}},
{"type":"Feature","geometry":{"type":"Polygon","coordinates":[[[5.977,49.649],[5.987,49.649],[5.997,49.644],[6,49.651],[6.012,49.652],[6.024,49.656],[6.051,49.653],[6.061,49.653],[6.068,49.658],[6.056,49.659],[6.053,49.667],[6.057,49.672],[6.064,49.673],[6.067,49.678],[6.083,49.676],[6.088,49.68],[6.09,49.685],[6.091,49.693],[6.09,49.699],[6.075,49.694],[6.072,49.699],[6.069,49.703],[6.058,49.703],[6.049,49.694],[6.038,49.693],[6.036,49.695],[6.023,49.696],[6.017,49.69],[6.009,49.691],[5.999,49.689],[5.991,49.694],[5.981,49.689],[5.986,49.686],[5.988,49.68],[5.995,49.679],[5.99,49.674],[5.995,49.667],[5.986,49.657],[5.988,49.654],[5.977,49.649]]]},"properties":{"LAU2":"0105","COMMUNE":"Kehlen","CANTON":"Capellen"}},
{"type":"Feature","geometry":{"type":"Polygon","coordinates":[[[5.928,49.704],[5.937,49.704],[5.964,49.717],[5.969,49.721],[5.978,49.721],[5.988,49.724],[5.99,49.719],[5.999,49.721],[6.005,49.725],[6.001,49.734],[6.002,49.738],[5.986,49.749],[5.988,49.752],[5.973,49.754],[5.967,49.751],[5.959,49.742],[5.952,49.739],[5.948,49.734],[5.942,49.732],[5.946,49.726],[5.944,49.72],[5.932,49.717],[5.924,49.713],[5.928,49.708],[5.928,49.704]]]},"properties":{"LAU2":"0707","COMMUNE":"Saeul","CANTON":"Redange"}},
{"type":"Feature","geometry":{"type":"Polygon","coordinates":[[[5.946,49.498],[5.952,49.494],[5.972,49.491],[5.968,49.486],[5.975,49.482],[5.972,49.47],[5.979,49.461],[5.987,49.463],[5.993,49.469],[6.001,49.477],[6.005,49.484],[6.004,49.486],[5.997,49.485],[5.999,49.493],[5.993,49.497],[5.999,49.501],[6.001,49.508],[5.998,49.515],[6,49.519],[5.994,49.515],[5.982,49.512],[5.967,49.514],[5.95,49.512],[5.95,49.509],[5.943,49.502],[5.946,49.498]]]},"properties":{"LAU2":"0204","COMMUNE":"Esch-sur-Alzette","CANTON":"Esch-sur-Alzette"}},
{"type":"Feature","geometry":{"type":"Polygon","coordinates":[[[6.378,49.677],[6.374,49.68],[6.376,49.688],[6.374,49.69],[6.362,49.685],[6.354,49.693],[6.352,49.701],[6.347,49.704],[6.331,49.703],[6.329,49.699],[6.319,49.698],[6.312,49.694],[6.308,49.703],[6.299,49.701],[6.303,49.694],[6.298,49.69],[6.296,49.683],[6.278,49.678],[6.277,49.669],[6.28,49.665],[6.286,49.665],[6.282,49.653],[6.29,49.647],[6.29,49.641],[6.296,49.636],[6.303,49.637],[6.308,49.641],[6.324,49.649],[6.324,49.659],[6.314,49.665],[6.32,49.669],[6.34,49.675],[6.357,49.677],[6.356,49.668],[6.365,49.667],[6.37,49.667],[6.378,49.677]]]},"properties":{"LAU2":"1101","COMMUNE":"Betzdorf","CANTON":"Grevenmacher"}},
{"type":"Feature","geometry":{"type":"Polygon","coordinates":[[[6.083,49.676],[6.089,49.674],[6.102,49.66],[6.104,49.657],[6.12,49.661],[6.126,49.663],[6.13,49.669],[6.142,49.667],[6.159,49.669],[6.16,49.655],[6.16,49.649],[6.15,49.642],[6.163,49.642],[6.165,49.645],[6.166,49.65],[6.174,49.658],[6.183,49.664],[6.197,49.67],[6.204,49.678],[6.211,49.681],[6.215,49.685],[6.212,49.689],[6.198,49.688],[6.199,49.685],[6.18,49.684],[6.169,49.686],[6.16,49.682],[6.148,49.681],[6.138,49.683],[6.133,49.69],[6.117,49.691],[6.109,49.69],[6.093,49.685],[6.09,49.685],[6.088,49.68],[6.083,49.676]]]},"properties":{"LAU2":"0308","COMMUNE":"Steinsel","CANTON":"Luxembourg"}},
{"type":"Feature","geometry":{"type":"Polygon","coordinates":[[[6.308,49.703],[6.316,49.704],[6.324,49.708],[6.317,49.723],[6.322,49.728],[6.321,49.731],[6.333,49.732],[6.329,49.735],[6.316,49.735],[6.31,49.734],[6.298,49.739],[6.285,49.741],[6.273,49.744],[6.265,49.744],[6.25,49.745],[6.231,49.748],[6.228,49.75],[6.221,49.735],[6.214,49.729],[6.208,49.728],[6.196,49.72],[6.185,49.715],[6.187,49.711],[6.185,49.7],[6.179,49.696],[6.183,49.693],[6.169,49.686],[6.18,49.684],[6.199,49.685],[6.198,49.688],[6.212,49.689],[6.215,49.685],[6.223,49.686],[6.237,49.683],[6.258,49.686],[6.264,49.684],[6.272,49.675],[6.278,49.678],[6.296,49.683],[6.298,49.69],[6.303,49.694],[6.299,49.701],[6.308,49.703]]]},"properties":{"LAU2":"1105","COMMUNE":"Junglinster","CANTON":"Grevenmacher"}},
{"type":"Feature","geometry":{"type":"Polygon","coordinates":[[[6.04,50.006],[6.035,50.001],[6.022,49.999],[6.016,50.003],[6.001,50.011],[5.988,50.014],[5.988,50.016],[5.977,50.018],[5.98,50.009],[5.966,49.998],[5.968,49.994],[5.965,49.989],[5.97,49.981],[5.968,49.972],[5.964,49.97],[5.969,49.963],[5.971,49.96],[5.986,49.958],[5.989,49.952],[5.999,49.949],[6.015,49.947],[6.013,49.941],[6.036,49.938],[6.038,49.94],[6.04,49.947],[6.042,49.953],[6.037,49.958],[6.043,49.962],[6.023,49.968],[6.026,49.973],[6.04,49.985],[6.053,49.988],[6.052,49.992],[6.057,49.994],[6.06,50.003],[6.045,49.997],[6.04,50.006]]]},"properties":{"LAU2":"0805","COMMUNE":"Kiischpelt","CANTON":"Wiltz"}},
{"type":"Feature","geometry":{"type":"Polygon","coordinates":[[[5.878,49.95],[5.888,49.958],[5.898,49.962],[5.901,49.968],[5.916,49.972],[5.92,49.982],[5.912,49.988],[5.908,49.996],[5.897,49.992],[5.885,49.994],[5.871,50],[5.872,49.991],[5.859,49.987],[5.858,49.991],[5.84,49.989],[5.837,49.981],[5.832,49.977],[5.824,49.975],[5.82,49.972],[5.81,49.971],[5.81,49.964],[5.807,49.96],[5.813,49.957],[5.811,49.954],[5.817,49.95],[5.831,49.954],[5.838,49.952],[5.833,49.941],[5.841,49.94],[5.845,49.936],[5.868,49.94],[5.866,49.949],[5.878,49.95]]]},"properties":{"LAU2":"0808","COMMUNE":"Winseler","CANTON":"Wiltz"}},
{"type":"Feature","geometry":{"type":"Polygon","coordinates":[[[6.27,49.556],[6.269,49.564],[6.254,49.569],[6.242,49.568],[6.231,49.57],[6.234,49.565],[6.226,49.557],[6.219,49.555],[6.229,49.542],[6.229,49.539],[6.24,49.53],[6.239,49.525],[6.235,49.517],[6.241,49.515],[6.247,49.524],[6.26,49.524],[6.269,49.534],[6.285,49.524],[6.295,49.534],[6.304,49.531],[6.311,49.531],[6.317,49.528],[6.325,49.531],[6.316,49.536],[6.317,49.539],[6.3,49.539],[6.288,49.549],[6.275,49.544],[6.268,49.547],[6.27,49.556]]]},"properties":{"LAU2":"1202","COMMUNE":"Dalheim","CANTON":"Remich"}},
{"type":"Feature","geometry":{"type":"Polygon","coordinates":[[[6.232,49.624],[6.224,49.623],[6.209,49.626],[6.205,49.632],[6.199,49.628],[6.189,49.626],[6.19,49.619],[6.203,49.614],[6.202,49.611],[6.192,49.605],[6.198,49.604],[6.205,49.606],[6.21,49.6],[6.215,49.603],[6.226,49.602],[6.236,49.605],[6.239,49.61],[6.24,49.619],[6.232,49.624]]]},"properties":{"LAU2":"0306","COMMUNE":"Sandweiler","CANTON":"Luxembourg"}},
{"type":"Feature","geometry":{"type":"Polygon","coordinates":[[[6.047,49.585],[6.04,49.587],[6.014,49.582],[6.008,49.579],[5.992,49.565],[5.981,49.563],[5.98,49.567],[5.971,49.57],[5.961,49.568],[5.966,49.561],[5.961,49.548],[5.97,49.547],[5.969,49.552],[5.979,49.552],[5.988,49.546],[6.001,49.543],[6.013,49.536],[6.02,49.536],[6.034,49.543],[6.047,49.553],[6.038,49.564],[6.04,49.57],[6.047,49.57],[6.049,49.576],[6.045,49.58],[6.047,49.585]]]},"properties":{"LAU2":"0210","COMMUNE":"Reckange-sur-Mess","CANTON":"Esch-sur-Alzette"}},
{"type":"Feature","geometry":{"type":"Polygon","coordinates":[[[6.046,50.158],[6.034,50.162],[6.029,50.166],[6.03,50.171],[6.025,50.183],[6.003,50.176],[5.971,50.175],[5.964,50.171],[5.964,50.161],[5.967,50.155],[5.958,50.151],[5.961,50.143],[5.959,50.139],[5.961,50.131],[5.954,50.13],[5.955,50.119],[5.963,50.108],[5.986,50.115],[5.995,50.113],[6,50.109],[6.01,50.107],[6.016,50.122],[6.023,50.123],[6.028,50.129],[6.052,50.145],[6.046,50.158]]]},"properties":{"LAU2":"0504","COMMUNE":"Troisvierges","CANTON":"Clervaux"}},
{"type":"Feature","geometry":{"type":"Polygon","coordinates":[[[6.355,49.556],[6.347,49.552],[6.342,49.547],[6.343,49.542],[6.339,49.538],[6.346,49.534],[6.356,49.538],[6.36,49.537],[6.378,49.55],[6.381,49.558],[6.375,49.561],[6.355,49.556]]]},"properties":{"LAU2":"1205","COMMUNE":"Remich","CANTON":"Remich"}},
{"type":"Feature","geometry":{"type":"Polygon","coordinates":[[[5.983,49.853],[5.987,49.847],[5.974,49.847],[5.97,49.843],[5.978,49.836],[5.985,49.824],[5.979,49.82],[5.986,49.817],[6.001,49.819],[6.018,49.827],[6.04,49.826],[6.042,49.826],[6.038,49.833],[6.008,49.848],[5.995,49.851],[5.987,49.857],[5.983,49.853]]]},"properties":{"LAU2":"0607","COMMUNE":"Mertzig","CANTON":"Diekirch"}},
{"type":"Feature","geometry":{"type":"Polygon","coordinates":[[[6.313,49.791],[6.312,49.796],[6.316,49.805],[6.324,49.813],[6.325,49.822],[6.32,49.82],[6.308,49.824],[6.284,49.824],[6.27,49.821],[6.264,49.811],[6.253,49.81],[6.258,49.803],[6.245,49.796],[6.244,49.793],[6.251,49.788],[6.249,49.785],[6.243,49.782],[6.261,49.776],[6.268,49.769],[6.275,49.77],[6.28,49.767],[6.279,49.763],[6.284,49.767],[6.285,49.773],[6.297,49.78],[6.301,49.787],[6.313,49.791]]]},"properties":{"LAU2":"1008","COMMUNE":"Waldbillig","CANTON":"Echternach"}},
{"type":"Feature","geometry":{"type":"Polygon","coordinates":[[[6.222,49.76],[6.23,49.767],[6.224,49.771],[6.22,49.777],[6.224,49.786],[6.236,49.792],[6.232,49.797],[6.217,49.79],[6.208,49.794],[6.205,49.798],[6.197,49.802],[6.189,49.8],[6.186,49.794],[6.179,49.787],[6.161,49.781],[6.159,49.773],[6.167,49.775],[6.173,49.767],[6.176,49.762],[6.183,49.759],[6.192,49.762],[6.207,49.759],[6.21,49.757],[6.222,49.76]]]},"properties":{"LAU2":"0406","COMMUNE":"Larochette","CANTON":"Mersch"}},
{"type":"Feature","geometry":{"type":"Polygon","coordinates":[[[6.068,49.658],[6.073,49.657],[6.079,49.651],[6.078,49.647],[6.101,49.646],[6.098,49.651],[6.104,49.657],[6.102,49.66],[6.089,49.674],[6.083,49.676],[6.067,49.678],[6.064,49.673],[6.057,49.672],[6.053,49.667],[6.056,49.659],[6.068,49.658]]]},"properties":{"LAU2":"0107","COMMUNE":"Kopstal","CANTON":"Capellen"}},
{"type":"Feature","geometry":{"type":"Polygon","coordinates":[[[6.038,49.94],[6.047,49.929],[6.041,49.926],[6.038,49.92],[6.027,49.916],[6.022,49.916],[6.021,49.909],[6.016,49.903],[6.011,49.893],[6.013,49.89],[6.012,49.88],[6.025,49.888],[6.032,49.888],[6.043,49.881],[6.045,49.883],[6.056,49.878],[6.058,49.872],[6.063,49.865],[6.079,49.868],[6.076,49.876],[6.076,49.882],[6.072,49.884],[6.078,49.89],[6.075,49.898],[6.079,49.903],[6.084,49.903],[6.089,49.896],[6.101,49.888],[6.107,49.896],[6.126,49.895],[6.131,49.903],[6.122,49.903],[6.112,49.908],[6.117,49.919],[6.097,49.924],[6.094,49.931],[6.088,49.934],[6.079,49.932],[6.065,49.935],[6.063,49.947],[6.065,49.949],[6.061,49.955],[6.055,49.954],[6.05,49.948],[6.04,49.947],[6.038,49.94]]]},"properties":{"LAU2":"0602","COMMUNE":"Bourscheid","CANTON":"Diekirch"}},
{"type":"Feature","geometry":{"type":"Polygon","coordinates":[[[6.091,49.693],[6.094,49.7],[6.105,49.706],[6.106,49.718],[6.1,49.721],[6.102,49.728],[6.107,49.732],[6.102,49.736],[6.106,49.741],[6.114,49.736],[6.118,49.726],[6.13,49.729],[6.139,49.737],[6.151,49.74],[6.157,49.745],[6.159,49.753],[6.15,49.751],[6.147,49.763],[6.151,49.765],[6.152,49.771],[6.144,49.782],[6.141,49.781],[6.133,49.791],[6.123,49.788],[6.118,49.791],[6.107,49.791],[6.102,49.789],[6.096,49.783],[6.096,49.778],[6.085,49.775],[6.076,49.768],[6.067,49.771],[6.061,49.771],[6.044,49.764],[6.045,49.752],[6.037,49.743],[6.043,49.733],[6.054,49.728],[6.059,49.721],[6.067,49.725],[6.074,49.718],[6.082,49.714],[6.072,49.699],[6.075,49.694],[6.09,49.699],[6.091,49.693]]]},"properties":{"LAU2":"0409","COMMUNE":"Mersch","CANTON":"Mersch"}},
{"type":"Feature","geometry":{"type":"Polygon","coordinates":[[[5.969,49.963],[5.962,49.96],[5.952,49.96],[5.95,49.954],[5.954,49.95],[5.954,49.94],[5.93,49.941],[5.919,49.939],[5.917,49.935],[5.929,49.933],[5.931,49.928],[5.941,49.929],[5.943,49.921],[5.947,49.918],[5.95,49.911],[5.959,49.907],[5.967,49.906],[5.971,49.909],[5.981,49.91],[5.986,49.913],[6.002,49.913],[6.003,49.922],[6.01,49.926],[6.029,49.918],[6.038,49.92],[6.041,49.926],[6.047,49.929],[6.038,49.94],[6.036,49.938],[6.013,49.941],[6.015,49.947],[5.999,49.949],[5.989,49.952],[5.986,49.958],[5.971,49.96],[5.969,49.963]]]},"properties":{"LAU2":"0804","COMMUNE":"Goesdorf","CANTON":"Wiltz"}},
{"type":"Feature","geometry":{"type":"Polygon","coordinates":[[[5.987,49.857],[5.998,49.865],[5.992,49.874],[6.005,49.879],[6.012,49.88],[6.013,49.89],[6.011,49.893],[6.016,49.903],[6.021,49.909],[6.022,49.916],[6.027,49.916],[6.038,49.92],[6.029,49.918],[6.01,49.926],[6.003,49.922],[6.002,49.913],[5.986,49.913],[5.981,49.91],[5.971,49.909],[5.967,49.906],[5.959,49.907],[5.95,49.911],[5.942,49.91],[5.938,49.915],[5.927,49.915],[5.914,49.906],[5.906,49.908],[5.9,49.913],[5.889,49.911],[5.878,49.902],[5.867,49.902],[5.854,49.908],[5.856,49.903],[5.846,49.899],[5.851,49.896],[5.848,49.892],[5.857,49.889],[5.865,49.882],[5.875,49.878],[5.88,49.874],[5.878,49.87],[5.881,49.864],[5.888,49.867],[5.898,49.874],[5.892,49.879],[5.9,49.888],[5.909,49.88],[5.919,49.862],[5.925,49.859],[5.937,49.87],[5.947,49.871],[5.957,49.867],[5.964,49.866],[5.967,49.861],[5.975,49.861],[5.983,49.853],[5.987,49.857]]]},"properties":{"LAU2":"0802","COMMUNE":"Esch-sur-Sûre","CANTON":"Wiltz"}},
{"type":"Feature","geometry":{"type":"Polygon","coordinates":[[[6.038,49.833],[6.06,49.837],[6.056,49.841],[6.058,49.845],[6.057,49.845],[6.064,49.848],[6.064,49.849],[6.068,49.852],[6.069,49.852],[6.069,49.853],[6.065,49.857],[6.063,49.865],[6.058,49.872],[6.056,49.878],[6.045,49.883],[6.043,49.881],[6.032,49.888],[6.025,49.888],[6.012,49.88],[6.005,49.879],[5.992,49.874],[5.998,49.865],[5.987,49.857],[5.995,49.851],[6.008,49.848],[6.038,49.833]]]},"properties":{"LAU2":"0606","COMMUNE":"Feulen","CANTON":"Diekirch"}},
{"type":"Feature","geometry":{"type":"Polygon","coordinates":[[[5.988,49.752],[5.995,49.761],[6,49.762],[5.997,49.77],[6.001,49.774],[5.998,49.782],[6.005,49.787],[5.974,49.803],[5.977,49.809],[5.966,49.809],[5.966,49.8],[5.962,49.794],[5.963,49.788],[5.956,49.787],[5.94,49.779],[5.933,49.779],[5.93,49.771],[5.922,49.766],[5.931,49.764],[5.932,49.756],[5.936,49.748],[5.941,49.749],[5.946,49.744],[5.946,49.739],[5.938,49.736],[5.942,49.732],[5.948,49.734],[5.952,49.739],[5.959,49.742],[5.967,49.751],[5.973,49.754],[5.988,49.752]]]},"properties":{"LAU2":"0708","COMMUNE":"Useldange","CANTON":"Redange"}},
{"type":"Feature","geometry":{"type":"Polygon","coordinates":[[[6.155,49.521],[6.163,49.531],[6.174,49.535],[6.173,49.55],[6.165,49.551],[6.16,49.555],[6.154,49.553],[6.127,49.557],[6.114,49.561],[6.102,49.565],[6.094,49.563],[6.085,49.552],[6.089,49.547],[6.099,49.542],[6.097,49.538],[6.107,49.526],[6.114,49.528],[6.117,49.52],[6.122,49.518],[6.128,49.509],[6.125,49.506],[6.128,49.494],[6.134,49.49],[6.142,49.492],[6.13,49.505],[6.133,49.511],[6.146,49.515],[6.155,49.521]]]},"properties":{"LAU2":"0211","COMMUNE":"Roeser","CANTON":"Esch-sur-Alzette"}},
{"type":"Feature","geometry":{"type":"Polygon","coordinates":[[[6.163,49.843],[6.171,49.843],[6.181,49.846],[6.187,49.846],[6.201,49.854],[6.212,49.853],[6.219,49.849],[6.237,49.849],[6.244,49.855],[6.25,49.859],[6.245,49.868],[6.251,49.873],[6.25,49.883],[6.234,49.889],[6.229,49.893],[6.217,49.893],[6.208,49.888],[6.194,49.886],[6.188,49.88],[6.19,49.874],[6.18,49.872],[6.176,49.865],[6.164,49.862],[6.158,49.856],[6.156,49.843],[6.163,49.843]]]},"properties":{"LAU2":"0601","COMMUNE":"Bettendorf","CANTON":"Diekirch"}},
{"type":"Feature","geometry":{"type":"Polygon","coordinates":[[[6.228,49.75],[6.222,49.76],[6.21,49.757],[6.207,49.759],[6.192,49.762],[6.183,49.759],[6.176,49.762],[6.173,49.767],[6.167,49.775],[6.159,49.773],[6.152,49.771],[6.151,49.765],[6.147,49.763],[6.15,49.751],[6.159,49.753],[6.157,49.745],[6.172,49.744],[6.173,49.739],[6.182,49.733],[6.185,49.727],[6.176,49.722],[6.185,49.715],[6.196,49.72],[6.208,49.728],[6.214,49.729],[6.221,49.735],[6.228,49.75]]]},"properties":{"LAU2":"0404","COMMUNE":"Fischbach","CANTON":"Mersch"}},
{"type":"Feature","geometry":{"type":"Polygon","coordinates":[[[5.857,49.889],[5.851,49.882],[5.839,49.883],[5.846,49.875],[5.824,49.866],[5.787,49.874],[5.783,49.876],[5.775,49.868],[5.766,49.869],[5.759,49.873],[5.753,49.868],[5.757,49.865],[5.755,49.857],[5.758,49.846],[5.748,49.846],[5.748,49.838],[5.741,49.839],[5.739,49.834],[5.744,49.831],[5.747,49.823],[5.743,49.821],[5.75,49.812],[5.755,49.791],[5.769,49.794],[5.79,49.796],[5.793,49.791],[5.803,49.792],[5.808,49.806],[5.809,49.814],[5.82,49.819],[5.834,49.814],[5.836,49.81],[5.846,49.809],[5.855,49.798],[5.863,49.798],[5.866,49.794],[5.873,49.798],[5.888,49.798],[5.901,49.808],[5.903,49.815],[5.908,49.819],[5.898,49.822],[5.896,49.826],[5.881,49.833],[5.88,49.84],[5.871,49.841],[5.886,49.848],[5.875,49.852],[5.871,49.858],[5.875,49.862],[5.873,49.866],[5.878,49.87],[5.88,49.874],[5.875,49.878],[5.865,49.882],[5.857,49.889]]]},"properties":{"LAU2":"0704","COMMUNE":"Rambrouch","CANTON":"Redange"}},
{"type":"Feature","geometry":{"type":"Polygon","coordinates":[[[6.072,49.83],[6.073,49.825],[6.094,49.821],[6.097,49.815],[6.105,49.815],[6.109,49.81],[6.124,49.816],[6.146,49.827],[6.147,49.832],[6.143,49.835],[6.13,49.843],[6.116,49.843],[6.109,49.837],[6.101,49.838],[6.092,49.836],[6.093,49.83],[6.072,49.83]]]},"properties":{"LAU2":"0609","COMMUNE":"Schieren","CANTON":"Diekirch"}},
{"type":"Feature","geometry":{"type":"Polygon","coordinates":[[[6.461,49.692],[6.48,49.697],[6.493,49.708],[6.506,49.716],[6.495,49.723],[6.497,49.727],[6.506,49.726],[6.511,49.721],[6.516,49.725],[6.506,49.729],[6.502,49.733],[6.488,49.736],[6.482,49.736],[6.476,49.743],[6.461,49.74],[6.461,49.734],[6.454,49.729],[6.454,49.708],[6.45,49.703],[6.454,49.698],[6.454,49.694],[6.461,49.692]]]},"properties":{"LAU2":"1107","COMMUNE":"Mertert","CANTON":"Grevenmacher"}},
{"type":"Feature","geometry":{"type":"Polygon","coordinates":[[[6.244,49.855],[6.254,49.857],[6.269,49.849],[6.286,49.847],[6.3,49.848],[6.31,49.848],[6.307,49.857],[6.314,49.86],[6.314,49.867],[6.307,49.87],[6.297,49.866],[6.291,49.874],[6.283,49.878],[6.276,49.877],[6.262,49.881],[6.256,49.887],[6.246,49.895],[6.235,49.899],[6.229,49.893],[6.234,49.889],[6.25,49.883],[6.251,49.873],[6.245,49.868],[6.25,49.859],[6.244,49.855]]]},"properties":{"LAU2":"0608","COMMUNE":"Reisdorf","CANTON":"Diekirch"}},
{"type":"Feature","geometry":{"type":"Polygon","coordinates":[[[6.04,49.947],[6.05,49.948],[6.055,49.954],[6.061,49.955],[6.065,49.949],[6.063,49.947],[6.065,49.935],[6.079,49.932],[6.088,49.934],[6.09,49.944],[6.094,49.95],[6.094,49.957],[6.099,49.961],[6.098,49.967],[6.104,49.982],[6.115,49.982],[6.119,49.98],[6.119,49.974],[6.128,49.971],[6.141,49.974],[6.156,49.979],[6.166,49.977],[6.169,49.986],[6.157,49.987],[6.151,49.994],[6.143,49.995],[6.149,50.006],[6.148,50.01],[6.14,50.01],[6.137,50.016],[6.146,50.023],[6.131,50.029],[6.13,50.032],[6.134,50.04],[6.121,50.054],[6.117,50.057],[6.102,50.051],[6.099,50.048],[6.076,50.045],[6.069,50.043],[6.067,50.039],[6.06,50.033],[6.049,50.027],[6.041,50.017],[6.036,50.017],[6.04,50.006],[6.045,49.997],[6.06,50.003],[6.057,49.994],[6.052,49.992],[6.053,49.988],[6.04,49.985],[6.026,49.973],[6.023,49.968],[6.043,49.962],[6.037,49.958],[6.042,49.953],[6.04,49.947]]]},"properties":{"LAU2":"0503","COMMUNE":"Parc Hosingen","CANTON":"Clervaux"}},
{"type":"Feature","geometry":{"type":"Polygon","coordinates":[[[6.316,49.583],[6.312,49.587],[6.327,49.594],[6.346,49.595],[6.354,49.593],[6.36,49.595],[6.372,49.591],[6.382,49.602],[6.376,49.604],[6.376,49.61],[6.366,49.616],[6.352,49.616],[6.348,49.612],[6.34,49.616],[6.333,49.624],[6.321,49.627],[6.31,49.628],[6.304,49.626],[6.276,49.604],[6.289,49.602],[6.295,49.598],[6.302,49.59],[6.301,49.583],[6.308,49.581],[6.316,49.583]]]},"properties":{"LAU2":"1203","COMMUNE":"Lenningen","CANTON":"Remich"}},
{"type":"Feature","geometry":{"type":"Polygon","coordinates":[[[5.81,49.964],[5.8,49.963],[5.796,49.966],[5.786,49.961],[5.775,49.961],[5.775,49.953],[5.77,49.95],[5.775,49.938],[5.771,49.932],[5.765,49.931],[5.761,49.917],[5.764,49.916],[5.776,49.918],[5.792,49.918],[5.8,49.92],[5.813,49.919],[5.841,49.909],[5.854,49.908],[5.867,49.902],[5.878,49.902],[5.889,49.911],[5.9,49.913],[5.906,49.908],[5.914,49.906],[5.927,49.915],[5.938,49.915],[5.942,49.91],[5.95,49.911],[5.947,49.918],[5.943,49.921],[5.941,49.929],[5.931,49.928],[5.929,49.933],[5.917,49.935],[5.906,49.943],[5.878,49.95],[5.866,49.949],[5.868,49.94],[5.845,49.936],[5.841,49.94],[5.833,49.941],[5.838,49.952],[5.831,49.954],[5.817,49.95],[5.811,49.954],[5.813,49.957],[5.807,49.96],[5.81,49.964]]]},"properties":{"LAU2":"0806","COMMUNE":"Lac de la Haute-Sûre","CANTON":"Wiltz"}},
{"type":"Feature","geometry":{"type":"Polygon","coordinates":[[[5.966,49.809],[5.969,49.812],[5.964,49.81],[5.953,49.812],[5.947,49.816],[5.939,49.816],[5.92,49.825],[5.91,49.824],[5.908,49.819],[5.903,49.815],[5.901,49.808],[5.902,49.802],[5.911,49.795],[5.912,49.79],[5.921,49.785],[5.93,49.784],[5.933,49.779],[5.94,49.779],[5.956,49.787],[5.963,49.788],[5.962,49.794],[5.966,49.8],[5.966,49.809]]]},"properties":{"LAU2":"0702","COMMUNE":"Préizerdaul","CANTON":"Redange"}},
{"type":"Feature","geometry":{"type":"Polygon","coordinates":[[[5.933,49.591],[5.92,49.598],[5.909,49.607],[5.906,49.616],[5.9,49.622],[5.901,49.625],[5.893,49.629],[5.887,49.627],[5.88,49.624],[5.876,49.619],[5.877,49.608],[5.866,49.605],[5.848,49.596],[5.85,49.587],[5.864,49.586],[5.873,49.584],[5.866,49.581],[5.873,49.574],[5.865,49.572],[5.876,49.561],[5.886,49.562],[5.887,49.557],[5.885,49.547],[5.899,49.547],[5.905,49.552],[5.932,49.557],[5.943,49.562],[5.949,49.56],[5.958,49.569],[5.945,49.566],[5.94,49.574],[5.938,49.58],[5.93,49.587],[5.933,49.591]]]},"properties":{"LAU2":"0104","COMMUNE":"Käerjeng","CANTON":"Capellen"}},
{"type":"Feature","geometry":{"type":"Polygon","coordinates":[[[5.854,49.908],[5.841,49.909],[5.813,49.919],[5.8,49.92],[5.792,49.918],[5.776,49.918],[5.764,49.916],[5.753,49.912],[5.74,49.904],[5.736,49.897],[5.778,49.884],[5.783,49.876],[5.787,49.874],[5.824,49.866],[5.846,49.875],[5.839,49.883],[5.851,49.882],[5.857,49.889],[5.848,49.892],[5.851,49.896],[5.846,49.899],[5.856,49.903],[5.854,49.908]]]},"properties":{"LAU2":"0801","COMMUNE":"Boulaide","CANTON":"Wiltz"}},
{"type":"Feature","geometry":{"type":"Polygon","coordinates":[[[6.042,49.826],[6.05,49.827],[6.062,49.831],[6.072,49.83],[6.093,49.83],[6.092,49.836],[6.101,49.838],[6.109,49.837],[6.116,49.843],[6.109,49.855],[6.103,49.859],[6.102,49.864],[6.088,49.875],[6.076,49.876],[6.079,49.868],[6.063,49.865],[6.065,49.857],[6.069,49.853],[6.069,49.852],[6.068,49.852],[6.064,49.849],[6.064,49.848],[6.057,49.845],[6.058,49.845],[6.056,49.841],[6.06,49.837],[6.038,49.833],[6.042,49.826]]]},"properties":{"LAU2":"0605","COMMUNE":"Ettelbruck","CANTON":"Diekirch"}},
{"type":"Feature","geometry":{"type":"Polygon","coordinates":[[[6.047,49.585],[6.069,49.59],[6.078,49.596],[6.076,49.6],[6.082,49.606],[6.076,49.611],[6.064,49.613],[6.063,49.619],[6.054,49.618],[6.052,49.624],[6.046,49.628],[6.038,49.624],[6.033,49.613],[6.032,49.611],[6.031,49.61],[6.022,49.61],[6.014,49.611],[6.008,49.604],[6,49.599],[5.998,49.595],[6.011,49.592],[6.004,49.587],[6.008,49.583],[6.014,49.582],[6.04,49.587],[6.047,49.585]]]},"properties":{"LAU2":"0301","COMMUNE":"Bertrange","CANTON":"Luxembourg"}},
{"type":"Feature","geometry":{"type":"Polygon","coordinates":[[[6.303,49.637],[6.309,49.629],[6.31,49.628],[6.321,49.627],[6.333,49.624],[6.34,49.616],[6.348,49.612],[6.352,49.616],[6.366,49.616],[6.368,49.618],[6.377,49.62],[6.375,49.624],[6.363,49.629],[6.36,49.635],[6.353,49.636],[6.353,49.646],[6.366,49.65],[6.374,49.647],[6.381,49.637],[6.387,49.638],[6.397,49.631],[6.395,49.627],[6.402,49.624],[6.405,49.629],[6.421,49.637],[6.424,49.643],[6.416,49.649],[6.422,49.654],[6.413,49.654],[6.408,49.658],[6.398,49.654],[6.385,49.657],[6.374,49.667],[6.365,49.667],[6.356,49.668],[6.357,49.677],[6.34,49.675],[6.32,49.669],[6.314,49.665],[6.324,49.659],[6.324,49.649],[6.308,49.641],[6.303,49.637]]]},"properties":{"LAU2":"1103","COMMUNE":"Flaxweiler","CANTON":"Grevenmacher"}},
{"type":"Feature","geometry":{"type":"Polygon","coordinates":[[[6.461,49.74],[6.447,49.742],[6.436,49.733],[6.428,49.731],[6.42,49.736],[6.408,49.741],[6.41,49.744],[6.397,49.748],[6.391,49.755],[6.378,49.751],[6.378,49.744],[6.381,49.736],[6.368,49.734],[6.369,49.731],[6.363,49.727],[6.369,49.716],[6.377,49.717],[6.389,49.715],[6.388,49.71],[6.397,49.704],[6.408,49.699],[6.406,49.691],[6.412,49.688],[6.426,49.694],[6.432,49.699],[6.445,49.693],[6.454,49.694],[6.454,49.698],[6.45,49.703],[6.454,49.708],[6.454,49.729],[6.461,49.734],[6.461,49.74]]]},"properties":{"LAU2":"1106","COMMUNE":"Manternach","CANTON":"Grevenmacher"}},
{"type":"Feature","geometry":{"type":"Polygon","coordinates":[[[5.942,49.732],[5.938,49.736],[5.946,49.739],[5.946,49.744],[5.941,49.749],[5.936,49.748],[5.932,49.756],[5.922,49.747],[5.906,49.742],[5.895,49.746],[5.889,49.744],[5.882,49.749],[5.874,49.748],[5.869,49.751],[5.862,49.751],[5.851,49.747],[5.838,49.744],[5.832,49.745],[5.827,49.739],[5.826,49.724],[5.838,49.724],[5.845,49.721],[5.86,49.727],[5.865,49.727],[5.875,49.722],[5.875,49.716],[5.887,49.709],[5.908,49.712],[5.914,49.703],[5.928,49.704],[5.928,49.708],[5.924,49.713],[5.932,49.717],[5.944,49.72],[5.946,49.726],[5.942,49.732]]]},"properties":{"LAU2":"0701","COMMUNE":"Beckerich","CANTON":"Redange"}},
{"type":"Feature","geometry":{"type":"Polygon","coordinates":[[[6.279,49.763],[6.272,49.757],[6.272,49.753],[6.266,49.747],[6.281,49.753],[6.289,49.752],[6.301,49.757],[6.315,49.759],[6.321,49.766],[6.338,49.764],[6.348,49.76],[6.363,49.764],[6.366,49.769],[6.375,49.77],[6.383,49.775],[6.384,49.791],[6.386,49.796],[6.373,49.797],[6.366,49.796],[6.353,49.8],[6.346,49.8],[6.338,49.797],[6.33,49.798],[6.313,49.791],[6.301,49.787],[6.297,49.78],[6.285,49.773],[6.284,49.767],[6.279,49.763]]]},"properties":{"LAU2":"1004","COMMUNE":"Consdorf","CANTON":"Echternach"}},
{"type":"Feature","geometry":{"type":"Polygon","coordinates":[[[6.378,49.677],[6.391,49.681],[6.392,49.681],[6.399,49.684],[6.406,49.691],[6.408,49.699],[6.397,49.704],[6.388,49.71],[6.389,49.715],[6.377,49.717],[6.369,49.716],[6.363,49.727],[6.369,49.731],[6.368,49.734],[6.345,49.735],[6.333,49.732],[6.321,49.731],[6.322,49.728],[6.317,49.723],[6.324,49.708],[6.316,49.704],[6.308,49.703],[6.312,49.694],[6.319,49.698],[6.329,49.699],[6.331,49.703],[6.347,49.704],[6.352,49.701],[6.354,49.693],[6.362,49.685],[6.374,49.69],[6.376,49.688],[6.374,49.68],[6.378,49.677]]]},"properties":{"LAU2":"1102","COMMUNE":"Biwer","CANTON":"Grevenmacher"}},
{"type":"Feature","geometry":{"type":"Polygon","coordinates":[[[6.104,49.657],[6.098,49.651],[6.101,49.646],[6.117,49.65],[6.121,49.648],[6.14,49.651],[6.143,49.649],[6.153,49.651],[6.16,49.655],[6.159,49.669],[6.142,49.667],[6.13,49.669],[6.126,49.663],[6.12,49.661],[6.104,49.657]]]},"properties":{"LAU2":"0310","COMMUNE":"Walferdange","CANTON":"Luxembourg"}},
{"type":"Feature","geometry":{"type":"Polygon","coordinates":[[[6.16,49.655],[6.153,49.651],[6.143,49.649],[6.14,49.651],[6.121,49.648],[6.117,49.65],[6.101,49.646],[6.078,49.647],[6.077,49.642],[6.07,49.634],[6.073,49.627],[6.087,49.628],[6.091,49.625],[6.103,49.624],[6.095,49.615],[6.082,49.606],[6.076,49.6],[6.078,49.596],[6.069,49.59],[6.076,49.589],[6.079,49.585],[6.079,49.577],[6.085,49.576],[6.094,49.579],[6.098,49.571],[6.104,49.57],[6.102,49.565],[6.114,49.561],[6.115,49.568],[6.126,49.571],[6.12,49.575],[6.124,49.581],[6.13,49.579],[6.135,49.586],[6.154,49.594],[6.161,49.601],[6.171,49.607],[6.185,49.608],[6.192,49.605],[6.202,49.611],[6.203,49.614],[6.19,49.619],[6.189,49.626],[6.179,49.626],[6.185,49.632],[6.179,49.637],[6.165,49.639],[6.165,49.645],[6.163,49.642],[6.15,49.642],[6.16,49.649],[6.16,49.655]]]},"properties":{"LAU2":"0304","COMMUNE":"Luxembourg","CANTON":"Luxembourg"}},
{"type":"Feature","geometry":{"type":"Polygon","coordinates":[[[5.885,49.547],[5.878,49.546],[5.87,49.542],[5.864,49.536],[5.856,49.535],[5.846,49.53],[5.834,49.526],[5.836,49.52],[5.848,49.515],[5.85,49.509],[5.859,49.506],[5.866,49.5],[5.874,49.498],[5.885,49.499],[5.896,49.497],[5.907,49.5],[5.907,49.507],[5.914,49.508],[5.916,49.517],[5.915,49.523],[5.908,49.523],[5.907,49.53],[5.915,49.534],[5.915,49.537],[5.906,49.544],[5.899,49.547],[5.885,49.547]]]},"properties":{"LAU2":"0202","COMMUNE":"Differdange","CANTON":"Esch-sur-Alzette"}},
{"type":"Feature","geometry":{"type":"Polygon","coordinates":[[[6.085,49.552],[6.072,49.551],[6.061,49.548],[6.059,49.54],[6.062,49.529],[6.053,49.524],[6.054,49.517],[6.046,49.511],[6.041,49.512],[6.039,49.505],[6.047,49.504],[6.056,49.505],[6.062,49.5],[6.073,49.501],[6.073,49.506],[6.087,49.504],[6.093,49.5],[6.099,49.506],[6.107,49.507],[6.111,49.501],[6.128,49.494],[6.125,49.506],[6.128,49.509],[6.122,49.518],[6.117,49.52],[6.114,49.528],[6.107,49.526],[6.097,49.538],[6.099,49.542],[6.089,49.547],[6.085,49.552]]]},"properties":{"LAU2":"0201","COMMUNE":"Bettembourg","CANTON":"Esch-sur-Alzette"}},
{"type":"Feature","geometry":{"type":"Polygon","coordinates":[[[6.061,49.653],[6.055,49.645],[6.047,49.641],[6.049,49.638],[6.046,49.628],[6.052,49.624],[6.054,49.618],[6.063,49.619],[6.064,49.613],[6.076,49.611],[6.082,49.606],[6.095,49.615],[6.103,49.624],[6.091,49.625],[6.087,49.628],[6.073,49.627],[6.07,49.634],[6.077,49.642],[6.078,49.647],[6.079,49.651],[6.073,49.657],[6.068,49.658],[6.061,49.653]]]},"properties":{"LAU2":"0309","COMMUNE":"Strassen","CANTON":"Luxembourg"}},
{"type":"Feature","geometry":{"type":"Polygon","coordinates":[[[5.987,49.463],[5.986,49.456],[6.001,49.457],[6.008,49.452],[6.024,49.455],[6.033,49.45],[6.039,49.453],[6.04,49.461],[6.037,49.466],[6.013,49.471],[6.003,49.472],[5.997,49.467],[5.993,49.469],[5.987,49.463]]]},"properties":{"LAU2":"0212","COMMUNE":"Rumelange","CANTON":"Esch-sur-Alzette"}},
{"type":"Feature","geometry":{"type":"Polygon","coordinates":[[[6,49.519],[6.003,49.521],[6.013,49.52],[6.019,49.524],[6.026,49.517],[6.038,49.515],[6.041,49.512],[6.046,49.511],[6.054,49.517],[6.053,49.524],[6.062,49.529],[6.059,49.54],[6.061,49.548],[6.052,49.549],[6.047,49.553],[6.034,49.543],[6.02,49.536],[6.013,49.536],[6.001,49.543],[5.988,49.546],[5.979,49.552],[5.969,49.552],[5.97,49.547],[5.958,49.54],[5.953,49.534],[5.959,49.53],[5.976,49.528],[5.974,49.523],[5.976,49.517],[5.967,49.514],[5.982,49.512],[5.994,49.515],[6,49.519]]]},"properties":{"LAU2":"0208","COMMUNE":"Mondercange","CANTON":"Esch-sur-Alzette"}},
{"type":"Feature","geometry":{"type":"Polygon","coordinates":[[[6.072,49.699],[6.082,49.714],[6.074,49.718],[6.067,49.725],[6.059,49.721],[6.054,49.728],[6.043,49.733],[6.037,49.743],[6.045,49.752],[6.044,49.764],[6.037,49.766],[6.04,49.775],[6.035,49.78],[6.025,49.781],[6.014,49.787],[6.005,49.787],[5.998,49.782],[6.001,49.774],[5.997,49.77],[6,49.762],[5.995,49.761],[5.988,49.752],[5.986,49.749],[6.002,49.738],[6.001,49.734],[6.005,49.725],[5.999,49.721],[5.997,49.712],[6.004,49.705],[5.998,49.7],[6.006,49.698],[6.011,49.694],[6.023,49.696],[6.036,49.695],[6.038,49.693],[6.049,49.694],[6.058,49.703],[6.069,49.703],[6.072,49.699]]]},"properties":{"LAU2":"0403","COMMUNE":"Helperknapp","CANTON":"Mersch"}},
{"type":"Feature","geometry":{"type":"Polygon","coordinates":[[[6.241,49.515],[6.248,49.509],[6.257,49.51],[6.263,49.504],[6.28,49.503],[6.279,49.496],[6.286,49.494],[6.3,49.5],[6.298,49.507],[6.306,49.514],[6.324,49.524],[6.317,49.528],[6.311,49.531],[6.304,49.531],[6.295,49.534],[6.285,49.524],[6.269,49.534],[6.26,49.524],[6.247,49.524],[6.241,49.515]]]},"properties":{"LAU2":"1204","COMMUNE":"Mondorf-les-Bains","CANTON":"Remich"}},
{"type":"Feature","geometry":{"type":"Polygon","coordinates":[[[5.933,49.779],[5.93,49.784],[5.921,49.785],[5.912,49.79],[5.911,49.795],[5.902,49.802],[5.901,49.808],[5.888,49.798],[5.873,49.798],[5.866,49.794],[5.863,49.798],[5.855,49.798],[5.846,49.809],[5.836,49.81],[5.834,49.814],[5.836,49.807],[5.827,49.799],[5.832,49.793],[5.829,49.788],[5.843,49.781],[5.855,49.777],[5.864,49.772],[5.87,49.762],[5.863,49.759],[5.869,49.751],[5.874,49.748],[5.882,49.749],[5.889,49.744],[5.895,49.746],[5.906,49.742],[5.922,49.747],[5.932,49.756],[5.931,49.764],[5.922,49.766],[5.93,49.771],[5.933,49.779]]]},"properties":{"LAU2":"0706","COMMUNE":"Redange/Attert","CANTON":"Redange"}},
{"type":"Feature","geometry":{"type":"Polygon","coordinates":[[[6.325,49.531],[6.338,49.533],[6.339,49.538],[6.343,49.542],[6.342,49.547],[6.347,49.552],[6.355,49.556],[6.351,49.559],[6.352,49.564],[6.344,49.572],[6.344,49.582],[6.321,49.578],[6.316,49.583],[6.308,49.581],[6.301,49.583],[6.292,49.587],[6.285,49.587],[6.269,49.583],[6.266,49.579],[6.259,49.579],[6.254,49.569],[6.269,49.564],[6.27,49.556],[6.268,49.547],[6.275,49.544],[6.288,49.549],[6.3,49.539],[6.317,49.539],[6.316,49.536],[6.325,49.531]]]},"properties":{"LAU2":"1209","COMMUNE":"Bous-Waldbredimus","CANTON":"Remich"}},
{"type":"Feature","geometry":{"type":"Polygon","coordinates":[[[6.014,49.582],[6.008,49.583],[6.004,49.587],[6.011,49.592],[5.998,49.595],[6,49.599],[6.008,49.604],[6.002,49.61],[5.987,49.6],[5.972,49.601],[5.969,49.599],[5.962,49.593],[5.952,49.591],[5.939,49.597],[5.933,49.591],[5.93,49.587],[5.938,49.58],[5.94,49.574],[5.945,49.566],[5.958,49.569],[5.961,49.568],[5.971,49.57],[5.98,49.567],[5.981,49.563],[5.992,49.565],[6.008,49.579],[6.014,49.582]]]},"properties":{"LAU2":"0101","COMMUNE":"Dippach","CANTON":"Capellen"}},
{"type":"Feature","geometry":{"type":"Polygon","coordinates":[[[6.265,49.744],[6.266,49.747],[6.272,49.753],[6.272,49.757],[6.279,49.763],[6.28,49.767],[6.275,49.77],[6.268,49.769],[6.261,49.776],[6.243,49.782],[6.249,49.785],[6.238,49.786],[6.236,49.792],[6.224,49.786],[6.22,49.777],[6.224,49.771],[6.23,49.767],[6.222,49.76],[6.228,49.75],[6.231,49.748],[6.25,49.745],[6.265,49.744]]]},"properties":{"LAU2":"0405","COMMUNE":"Heffingen","CANTON":"Mersch"}},
{"type":"Feature","geometry":{"type":"Polygon","coordinates":[[[6.375,49.77],[6.397,49.774],[6.412,49.786],[6.419,49.785],[6.431,49.791],[6.433,49.795],[6.45,49.795],[6.458,49.792],[6.467,49.794],[6.471,49.798],[6.469,49.803],[6.454,49.807],[6.452,49.811],[6.432,49.811],[6.42,49.816],[6.403,49.819],[6.385,49.833],[6.38,49.83],[6.387,49.823],[6.39,49.815],[6.376,49.808],[6.366,49.796],[6.373,49.797],[6.386,49.796],[6.384,49.791],[6.383,49.775],[6.375,49.77]]]},"properties":{"LAU2":"1005","COMMUNE":"Echternach","CANTON":"Echternach"}},
{"type":"Feature","geometry":{"type":"Polygon","coordinates":[[[6.105,49.706],[6.117,49.704],[6.122,49.705],[6.134,49.711],[6.159,49.714],[6.168,49.721],[6.176,49.722],[6.185,49.727],[6.182,49.733],[6.173,49.739],[6.172,49.744],[6.157,49.745],[6.151,49.74],[6.139,49.737],[6.13,49.729],[6.118,49.726],[6.114,49.736],[6.106,49.741],[6.102,49.736],[6.107,49.732],[6.102,49.728],[6.1,49.721],[6.106,49.718],[6.105,49.706]]]},"properties":{"LAU2":"0407","COMMUNE":"Lintgen","CANTON":"Mersch"}},
{"type":"Feature","geometry":{"type":"Polygon","coordinates":[[[6.128,49.893],[6.126,49.895],[6.107,49.896],[6.101,49.888],[6.089,49.896],[6.084,49.903],[6.079,49.903],[6.075,49.898],[6.078,49.89],[6.072,49.884],[6.076,49.882],[6.076,49.876],[6.088,49.875],[6.102,49.864],[6.103,49.859],[6.109,49.855],[6.116,49.843],[6.13,49.843],[6.143,49.835],[6.143,49.836],[6.144,49.84],[6.153,49.844],[6.153,49.847],[6.146,49.853],[6.148,49.857],[6.141,49.861],[6.13,49.864],[6.132,49.876],[6.118,49.877],[6.121,49.889],[6.128,49.893]]]},"properties":{"LAU2":"0604","COMMUNE":"Erpeldange-sur-Sûre","CANTON":"Diekirch"}},
{"type":"Feature","geometry":{"type":"Polygon","coordinates":[[[6.229,49.539],[6.215,49.533],[6.207,49.533],[6.2,49.527],[6.187,49.526],[6.185,49.528],[6.174,49.524],[6.172,49.517],[6.161,49.518],[6.155,49.521],[6.146,49.515],[6.133,49.511],[6.13,49.505],[6.142,49.492],[6.145,49.488],[6.156,49.493],[6.154,49.502],[6.164,49.505],[6.175,49.51],[6.181,49.508],[6.196,49.505],[6.203,49.507],[6.215,49.506],[6.228,49.51],[6.236,49.508],[6.241,49.515],[6.235,49.517],[6.239,49.525],[6.24,49.53],[6.229,49.539]]]},"properties":{"LAU2":"0205","COMMUNE":"Frisange","CANTON":"Esch-sur-Alzette"}},
{"type":"Feature","geometry":{"type":"Polygon","coordinates":[[[5.993,49.469],[5.997,49.467],[6.003,49.472],[6.013,49.471],[6.037,49.466],[6.04,49.461],[6.039,49.453],[6.033,49.45],[6.042,49.448],[6.05,49.46],[6.047,49.462],[6.053,49.468],[6.054,49.476],[6.058,49.479],[6.056,49.484],[6.061,49.489],[6.054,49.497],[6.062,49.5],[6.056,49.505],[6.047,49.504],[6.039,49.505],[6.018,49.496],[6.004,49.486],[6.005,49.484],[6.001,49.477],[5.993,49.469]]]},"properties":{"LAU2":"0206","COMMUNE":"Kayl","CANTON":"Esch-sur-Alzette"}},
{"type":"Feature","geometry":{"type":"Polygon","coordinates":[[[6.317,49.528],[6.324,49.524],[6.306,49.514],[6.298,49.507],[6.3,49.5],[6.286,49.494],[6.288,49.486],[6.298,49.487],[6.295,49.481],[6.304,49.478],[6.313,49.48],[6.321,49.477],[6.334,49.467],[6.343,49.469],[6.347,49.466],[6.353,49.467],[6.364,49.46],[6.368,49.466],[6.367,49.494],[6.367,49.504],[6.356,49.53],[6.36,49.537],[6.356,49.538],[6.346,49.534],[6.339,49.538],[6.338,49.533],[6.325,49.531],[6.317,49.528]]]},"properties":{"LAU2":"1206","COMMUNE":"Schengen","CANTON":"Remich"}},
{"type":"Feature","geometry":{"type":"Polygon","coordinates":[[[6.192,49.605],[6.185,49.608],[6.171,49.607],[6.161,49.601],[6.154,49.594],[6.135,49.586],[6.13,49.579],[6.124,49.581],[6.12,49.575],[6.126,49.571],[6.115,49.568],[6.114,49.561],[6.127,49.557],[6.154,49.553],[6.16,49.555],[6.165,49.551],[6.173,49.55],[6.177,49.548],[6.185,49.551],[6.18,49.559],[6.187,49.56],[6.202,49.567],[6.203,49.575],[6.199,49.58],[6.202,49.585],[6.198,49.59],[6.21,49.6],[6.205,49.606],[6.198,49.604],[6.192,49.605]]]},"properties":{"LAU2":"0303","COMMUNE":"Hesperange","CANTON":"Luxembourg"}},
{"type":"Feature","geometry":{"type":"Polygon","coordinates":[[[6.254,49.569],[6.259,49.579],[6.266,49.579],[6.269,49.583],[6.285,49.587],[6.292,49.587],[6.301,49.583],[6.302,49.59],[6.295,49.598],[6.289,49.602],[6.276,49.604],[6.254,49.605],[6.239,49.61],[6.236,49.605],[6.226,49.602],[6.215,49.603],[6.21,49.6],[6.198,49.59],[6.202,49.585],[6.199,49.58],[6.203,49.575],[6.212,49.572],[6.223,49.574],[6.231,49.57],[6.242,49.568],[6.254,49.569]]]},"properties":{"LAU2":"0302","COMMUNE":"Contern","CANTON":"Luxembourg"}},
{"type":"Feature","geometry":{"type":"Polygon","coordinates":[[[6.18,49.872],[6.19,49.874],[6.188,49.88],[6.194,49.886],[6.208,49.888],[6.217,49.893],[6.229,49.893],[6.235,49.899],[6.232,49.906],[6.227,49.91],[6.234,49.913],[6.229,49.921],[6.218,49.923],[6.208,49.923],[6.205,49.926],[6.197,49.924],[6.19,49.926],[6.176,49.936],[6.173,49.942],[6.162,49.942],[6.153,49.94],[6.144,49.946],[6.133,49.943],[6.13,49.938],[6.118,49.932],[6.115,49.923],[6.117,49.919],[6.112,49.908],[6.122,49.903],[6.131,49.903],[6.126,49.895],[6.128,49.893],[6.137,49.898],[6.145,49.896],[6.147,49.89],[6.155,49.884],[6.165,49.882],[6.175,49.877],[6.18,49.872]]]},"properties":{"LAU2":"0901","COMMUNE":"Tandel","CANTON":"Vianden"}},
{"type":"Feature","geometry":{"type":"Polygon","coordinates":[[[5.983,49.853],[5.975,49.861],[5.967,49.861],[5.964,49.866],[5.957,49.867],[5.947,49.871],[5.937,49.87],[5.925,49.859],[5.919,49.862],[5.909,49.88],[5.9,49.888],[5.892,49.879],[5.898,49.874],[5.888,49.867],[5.881,49.864],[5.878,49.87],[5.873,49.866],[5.875,49.862],[5.871,49.858],[5.875,49.852],[5.886,49.848],[5.871,49.841],[5.88,49.84],[5.881,49.833],[5.896,49.826],[5.898,49.822],[5.908,49.819],[5.91,49.824],[5.92,49.825],[5.939,49.816],[5.947,49.816],[5.953,49.812],[5.964,49.81],[5.969,49.812],[5.973,49.814],[5.984,49.813],[5.986,49.817],[5.979,49.82],[5.985,49.824],[5.978,49.836],[5.97,49.843],[5.974,49.847],[5.987,49.847],[5.983,49.853]]]},"properties":{"LAU2":"0711","COMMUNE":"Groussbus-Wal","CANTON":"Redange"}},
{"type":"Feature","geometry":{"type":"Polygon","coordinates":[[[5.908,49.996],[5.91,50],[5.927,50.008],[5.924,50.016],[5.931,50.02],[5.936,50.019],[5.943,50.025],[5.951,50.028],[5.955,50.026],[5.966,50.032],[5.957,50.041],[5.969,50.044],[5.975,50.051],[5.982,50.054],[5.987,50.067],[5.998,50.071],[6.007,50.073],[6.022,50.068],[6.021,50.073],[6.026,50.08],[6.032,50.083],[6.026,50.089],[6.027,50.094],[6.02,50.097],[6.009,50.097],[6.006,50.103],[6.01,50.107],[6,50.109],[5.995,50.113],[5.986,50.115],[5.963,50.108],[5.955,50.119],[5.954,50.13],[5.93,50.126],[5.901,50.116],[5.895,50.112],[5.895,50.101],[5.886,50.09],[5.886,50.078],[5.868,50.073],[5.861,50.069],[5.854,50.059],[5.867,50.05],[5.87,50.046],[5.863,50.039],[5.856,50.036],[5.86,50.029],[5.853,50.028],[5.851,50.023],[5.842,50.019],[5.834,50.018],[5.819,50.013],[5.822,50.006],[5.821,50],[5.832,49.991],[5.84,49.989],[5.858,49.991],[5.859,49.987],[5.872,49.991],[5.871,50],[5.885,49.994],[5.897,49.992],[5.908,49.996]]]},"properties":{"LAU2":"0502","COMMUNE":"Wincrange","CANTON":"Clervaux"}},
{"type":"Feature","geometry":{"type":"Polygon","coordinates":[[[5.967,49.514],[5.976,49.517],[5.974,49.523],[5.976,49.528],[5.959,49.53],[5.953,49.534],[5.958,49.54],[5.97,49.547],[5.961,49.548],[5.966,49.561],[5.961,49.568],[5.958,49.569],[5.949,49.56],[5.943,49.562],[5.932,49.557],[5.905,49.552],[5.899,49.547],[5.906,49.544],[5.915,49.537],[5.915,49.534],[5.907,49.53],[5.908,49.523],[5.915,49.523],[5.916,49.517],[5.914,49.508],[5.907,49.507],[5.907,49.5],[5.913,49.502],[5.928,49.498],[5.931,49.501],[5.94,49.501],[5.946,49.498],[5.943,49.502],[5.95,49.509],[5.95,49.512],[5.967,49.514]]]},"properties":{"LAU2":"0213","COMMUNE":"Sanem","CANTON":"Esch-sur-Alzette"}},
{"type":"Feature","geometry":{"type":"Polygon","coordinates":[[[6.231,49.57],[6.223,49.574],[6.212,49.572],[6.203,49.575],[6.202,49.567],[6.187,49.56],[6.18,49.559],[6.185,49.551],[6.177,49.548],[6.173,49.55],[6.174,49.535],[6.163,49.531],[6.155,49.521],[6.161,49.518],[6.172,49.517],[6.174,49.524],[6.185,49.528],[6.187,49.526],[6.2,49.527],[6.207,49.533],[6.215,49.533],[6.229,49.539],[6.229,49.542],[6.219,49.555],[6.226,49.557],[6.234,49.565],[6.231,49.57]]]},"properties":{"LAU2":"0311","COMMUNE":"Weiler-la-Tour","CANTON":"Luxembourg"}},
{"type":"Feature","geometry":{"type":"Polygon","coordinates":[[[6.325,49.822],[6.33,49.828],[6.33,49.836],[6.32,49.84],[6.323,49.852],[6.314,49.86],[6.307,49.857],[6.31,49.848],[6.3,49.848],[6.286,49.847],[6.269,49.849],[6.263,49.845],[6.271,49.841],[6.255,49.83],[6.256,49.823],[6.27,49.821],[6.284,49.824],[6.308,49.824],[6.32,49.82],[6.325,49.822]]]},"properties":{"LAU2":"1001","COMMUNE":"Beaufort","CANTON":"Echternach"}},
{"type":"Feature","geometry":{"type":"Polygon","coordinates":[[[6.04,49.826],[6.041,49.823],[6.049,49.816],[6.057,49.814],[6.065,49.809],[6.062,49.807],[6.062,49.801],[6.075,49.798],[6.085,49.798],[6.09,49.794],[6.102,49.789],[6.107,49.791],[6.114,49.803],[6.109,49.81],[6.105,49.815],[6.097,49.815],[6.094,49.821],[6.073,49.825],[6.072,49.83],[6.062,49.831],[6.05,49.827],[6.042,49.826],[6.04,49.826]]]},"properties":{"LAU2":"0401","COMMUNE":"Colmar-Berg","CANTON":"Mersch"}},
{"type":"Feature","geometry":{"type":"Polygon","coordinates":[[[5.981,49.689],[5.976,49.693],[5.964,49.691],[5.958,49.688],[5.95,49.69],[5.937,49.681],[5.927,49.681],[5.918,49.673],[5.922,49.671],[5.928,49.661],[5.941,49.654],[5.947,49.649],[5.959,49.643],[5.967,49.648],[5.977,49.649],[5.988,49.654],[5.986,49.657],[5.995,49.667],[5.99,49.674],[5.995,49.679],[5.988,49.68],[5.986,49.686],[5.981,49.689]]]},"properties":{"LAU2":"0106","COMMUNE":"Koerich","CANTON":"Capellen"}},
{"type":"Feature","geometry":{"type":"Polygon","coordinates":[[[5.986,49.817],[5.984,49.813],[5.973,49.814],[5.969,49.812],[5.966,49.809],[5.977,49.809],[5.974,49.803],[6.005,49.787],[6.014,49.787],[6.015,49.795],[6.037,49.805],[6.028,49.81],[6.032,49.82],[6.041,49.823],[6.04,49.826],[6.018,49.827],[6.001,49.819],[5.986,49.817]]]},"properties":{"LAU2":"0709","COMMUNE":"Vichten","CANTON":"Redange"}},
{"type":"Feature","geometry":{"type":"Polygon","coordinates":[[[6.313,49.791],[6.33,49.798],[6.338,49.797],[6.346,49.8],[6.353,49.8],[6.366,49.796],[6.376,49.808],[6.39,49.815],[6.387,49.823],[6.38,49.83],[6.385,49.833],[6.364,49.851],[6.35,49.85],[6.34,49.847],[6.338,49.841],[6.33,49.836],[6.33,49.828],[6.325,49.822],[6.324,49.813],[6.316,49.805],[6.312,49.796],[6.313,49.791]]]},"properties":{"LAU2":"1003","COMMUNE":"Berdorf","CANTON":"Echternach"}},
{"type":"Feature","geometry":{"type":"Polygon","coordinates":[[[6.01,50.107],[6.006,50.103],[6.009,50.097],[6.02,50.097],[6.027,50.094],[6.056,50.099],[6.061,50.103],[6.076,50.11],[6.081,50.119],[6.104,50.13],[6.107,50.134],[6.112,50.136],[6.115,50.144],[6.123,50.149],[6.115,50.156],[6.12,50.163],[6.102,50.171],[6.093,50.169],[6.085,50.172],[6.079,50.171],[6.08,50.161],[6.064,50.153],[6.046,50.158],[6.052,50.145],[6.028,50.129],[6.023,50.123],[6.016,50.122],[6.01,50.107]]]},"properties":{"LAU2":"0505","COMMUNE":"Weiswampach","CANTON":"Clervaux"}},
{"type":"Feature","geometry":{"type":"Polygon","coordinates":[[[5.977,49.649],[5.967,49.648],[5.959,49.643],[5.96,49.642],[5.967,49.631],[5.966,49.623],[5.971,49.623],[5.972,49.61],[5.964,49.607],[5.969,49.599],[5.972,49.601],[5.987,49.6],[6.002,49.61],[6.008,49.604],[6.014,49.611],[6.022,49.61],[6.031,49.61],[6.032,49.611],[6.033,49.613],[6.038,49.624],[6.046,49.628],[6.049,49.638],[6.047,49.641],[6.055,49.645],[6.061,49.653],[6.051,49.653],[6.024,49.656],[6.012,49.652],[6,49.651],[5.997,49.644],[5.987,49.649],[5.977,49.649]]]},"properties":{"LAU2":"0108","COMMUNE":"Mamer","CANTON":"Capellen"}},
{"type":"Feature","geometry":{"type":"Polygon","coordinates":[[[6.117,49.919],[6.115,49.923],[6.118,49.932],[6.13,49.938],[6.133,49.943],[6.144,49.946],[6.153,49.94],[6.162,49.942],[6.172,49.948],[6.181,49.947],[6.186,49.949],[6.198,49.948],[6.193,49.956],[6.192,49.966],[6.186,49.967],[6.183,49.963],[6.189,49.956],[6.18,49.952],[6.176,49.962],[6.17,49.963],[6.165,49.972],[6.166,49.977],[6.156,49.979],[6.141,49.974],[6.128,49.971],[6.119,49.974],[6.119,49.98],[6.115,49.982],[6.104,49.982],[6.098,49.967],[6.099,49.961],[6.094,49.957],[6.094,49.95],[6.09,49.944],[6.088,49.934],[6.094,49.931],[6.097,49.924],[6.117,49.919]]]},"properties":{"LAU2":"0902","COMMUNE":"Putscheid","CANTON":"Vianden"}},
{"type":"Feature","geometry":{"type":"Polygon","coordinates":[[[5.933,49.591],[5.939,49.597],[5.952,49.591],[5.962,49.593],[5.969,49.599],[5.964,49.607],[5.972,49.61],[5.971,49.623],[5.966,49.623],[5.967,49.631],[5.96,49.642],[5.937,49.63],[5.931,49.638],[5.922,49.635],[5.915,49.638],[5.907,49.639],[5.903,49.636],[5.904,49.632],[5.893,49.629],[5.901,49.625],[5.9,49.622],[5.906,49.616],[5.909,49.607],[5.92,49.598],[5.933,49.591]]]},"properties":{"LAU2":"0102","COMMUNE":"Garnich","CANTON":"Capellen"}},
{"type":"Feature","geometry":{"type":"Polygon","coordinates":[[[5.977,50.018],[5.976,50.024],[5.969,50.027],[5.966,50.032],[5.955,50.026],[5.951,50.028],[5.943,50.025],[5.936,50.019],[5.931,50.02],[5.924,50.016],[5.927,50.008],[5.91,50],[5.908,49.996],[5.912,49.988],[5.92,49.982],[5.916,49.972],[5.901,49.968],[5.898,49.962],[5.888,49.958],[5.878,49.95],[5.906,49.943],[5.917,49.935],[5.919,49.939],[5.93,49.941],[5.954,49.94],[5.954,49.95],[5.95,49.954],[5.952,49.96],[5.962,49.96],[5.969,49.963],[5.964,49.97],[5.968,49.972],[5.97,49.981],[5.965,49.989],[5.968,49.994],[5.966,49.998],[5.98,50.009],[5.977,50.018]]]},"properties":{"LAU2":"0807","COMMUNE":"Wiltz","CANTON":"Wiltz"}},
{"type":"Feature","geometry":{"type":"Polygon","coordinates":[[[5.865,49.572],[5.861,49.567],[5.852,49.565],[5.843,49.56],[5.846,49.556],[5.842,49.553],[5.828,49.55],[5.826,49.552],[5.813,49.541],[5.817,49.537],[5.837,49.543],[5.839,49.537],[5.846,49.53],[5.856,49.535],[5.864,49.536],[5.87,49.542],[5.878,49.546],[5.885,49.547],[5.887,49.557],[5.886,49.562],[5.876,49.561],[5.865,49.572]]]},"properties":{"LAU2":"0209","COMMUNE":"Pétange","CANTON":"Esch-sur-Alzette"}},
{"type":"Feature","geometry":{"type":"Polygon","coordinates":[[[6.218,49.923],[6.226,49.929],[6.224,49.934],[6.227,49.937],[6.212,49.95],[6.208,49.955],[6.201,49.953],[6.198,49.948],[6.186,49.949],[6.181,49.947],[6.172,49.948],[6.162,49.942],[6.173,49.942],[6.176,49.936],[6.19,49.926],[6.197,49.924],[6.205,49.926],[6.208,49.923],[6.218,49.923]]]},"properties":{"LAU2":"0903","COMMUNE":"Vianden","CANTON":"Vianden"}},
{"type":"Feature","geometry":{"type":"Polygon","coordinates":[[[6.09,49.685],[6.093,49.685],[6.109,49.69],[6.117,49.691],[6.133,49.69],[6.138,49.683],[6.148,49.681],[6.16,49.682],[6.169,49.686],[6.183,49.693],[6.179,49.696],[6.185,49.7],[6.187,49.711],[6.185,49.715],[6.176,49.722],[6.168,49.721],[6.159,49.714],[6.134,49.711],[6.122,49.705],[6.117,49.704],[6.105,49.706],[6.094,49.7],[6.091,49.693],[6.09,49.685]]]},"properties":{"LAU2":"0408","COMMUNE":"Lorentzweiler","CANTON":"Mersch"}},
{"type":"Feature","geometry":{"type":"Polygon","coordinates":[[[6.197,49.802],[6.189,49.806],[6.192,49.812],[6.186,49.823],[6.175,49.821],[6.163,49.823],[6.153,49.818],[6.149,49.826],[6.146,49.827],[6.124,49.816],[6.109,49.81],[6.114,49.803],[6.107,49.791],[6.118,49.791],[6.123,49.788],[6.133,49.791],[6.141,49.781],[6.144,49.782],[6.152,49.771],[6.159,49.773],[6.161,49.781],[6.179,49.787],[6.186,49.794],[6.189,49.8],[6.197,49.802]]]},"properties":{"LAU2":"0410","COMMUNE":"Nommern","CANTON":"Mersch"}},
{"type":"Feature","geometry":{"type":"Polygon","coordinates":[[[5.793,49.791],[5.792,49.787],[5.798,49.782],[5.8,49.778],[5.807,49.772],[5.809,49.765],[5.816,49.762],[5.818,49.754],[5.824,49.749],[5.83,49.75],[5.832,49.745],[5.838,49.744],[5.851,49.747],[5.862,49.751],[5.869,49.751],[5.863,49.759],[5.87,49.762],[5.864,49.772],[5.855,49.777],[5.843,49.781],[5.829,49.788],[5.832,49.793],[5.827,49.799],[5.836,49.807],[5.834,49.814],[5.82,49.819],[5.809,49.814],[5.808,49.806],[5.803,49.792],[5.793,49.791]]]},"properties":{"LAU2":"0703","COMMUNE":"Ell","CANTON":"Redange"}},
{"type":"Feature","geometry":{"type":"Polygon","coordinates":[[[6.375,49.561],[6.358,49.57],[6.357,49.573],[6.368,49.579],[6.381,49.577],[6.382,49.58],[6.375,49.586],[6.374,49.59],[6.372,49.591],[6.36,49.595],[6.354,49.593],[6.346,49.595],[6.327,49.594],[6.312,49.587],[6.316,49.583],[6.321,49.578],[6.344,49.582],[6.344,49.572],[6.352,49.564],[6.351,49.559],[6.355,49.556],[6.375,49.561]]]},"properties":{"LAU2":"1207","COMMUNE":"Stadtbredimus","CANTON":"Remich"}},
{"type":"Feature","geometry":{"type":"Polygon","coordinates":[[[6.29,49.647],[6.28,49.644],[6.274,49.645],[6.263,49.642],[6.248,49.635],[6.242,49.628],[6.232,49.624],[6.24,49.619],[6.239,49.61],[6.254,49.605],[6.276,49.604],[6.304,49.626],[6.31,49.628],[6.309,49.629],[6.303,49.637],[6.296,49.636],[6.29,49.641],[6.29,49.647]]]},"properties":{"LAU2":"0307","COMMUNE":"Schuttrange","CANTON":"Luxembourg"}},
{"type":"Feature","geometry":{"type":"Polygon","coordinates":[[[6.004,49.486],[6.018,49.496],[6.039,49.505],[6.041,49.512],[6.038,49.515],[6.026,49.517],[6.019,49.524],[6.013,49.52],[6.003,49.521],[6,49.519],[5.998,49.515],[6.001,49.508],[5.999,49.501],[5.993,49.497],[5.999,49.493],[5.997,49.485],[6.004,49.486]]]},"properties":{"LAU2":"0214","COMMUNE":"Schifflange","CANTON":"Esch-sur-Alzette"}},
{"type":"Feature","geometry":{"type":"Polygon","coordinates":[[[6.333,49.732],[6.345,49.735],[6.368,49.734],[6.381,49.736],[6.378,49.744],[6.378,49.751],[6.391,49.755],[6.398,49.759],[6.401,49.767],[6.397,49.774],[6.375,49.77],[6.366,49.769],[6.363,49.764],[6.348,49.76],[6.338,49.764],[6.321,49.766],[6.315,49.759],[6.301,49.757],[6.289,49.752],[6.281,49.753],[6.266,49.747],[6.265,49.744],[6.273,49.744],[6.285,49.741],[6.298,49.739],[6.31,49.734],[6.316,49.735],[6.329,49.735],[6.333,49.732]]]},"properties":{"LAU2":"1002","COMMUNE":"Bech","CANTON":"Echternach"}},
{"type":"Feature","geometry":{"type":"Polygon","coordinates":[[[6.372,49.591],[6.374,49.59],[6.384,49.6],[6.397,49.602],[6.409,49.613],[6.418,49.617],[6.422,49.622],[6.428,49.636],[6.439,49.653],[6.44,49.658],[6.428,49.66],[6.425,49.664],[6.421,49.664],[6.422,49.654],[6.416,49.649],[6.424,49.643],[6.421,49.637],[6.405,49.629],[6.402,49.624],[6.395,49.627],[6.397,49.631],[6.387,49.638],[6.381,49.637],[6.374,49.647],[6.366,49.65],[6.353,49.646],[6.353,49.636],[6.36,49.635],[6.363,49.629],[6.375,49.624],[6.377,49.62],[6.368,49.618],[6.366,49.616],[6.376,49.61],[6.376,49.604],[6.382,49.602],[6.372,49.591]]]},"properties":{"LAU2":"1108","COMMUNE":"Wormeldange","CANTON":"Grevenmacher"}},
{"type":"Feature","geometry":{"type":"Polygon","coordinates":[[[6.502,49.733],[6.502,49.746],[6.5,49.752],[6.518,49.761],[6.518,49.768],[6.51,49.773],[6.516,49.784],[6.507,49.787],[6.507,49.792],[6.52,49.796],[6.531,49.806],[6.529,49.809],[6.521,49.813],[6.517,49.805],[6.509,49.802],[6.506,49.808],[6.496,49.812],[6.489,49.812],[6.48,49.819],[6.473,49.822],[6.464,49.819],[6.457,49.813],[6.452,49.811],[6.454,49.807],[6.469,49.803],[6.471,49.798],[6.467,49.794],[6.458,49.792],[6.45,49.795],[6.433,49.795],[6.431,49.791],[6.419,49.785],[6.412,49.786],[6.397,49.774],[6.401,49.767],[6.398,49.759],[6.391,49.755],[6.397,49.748],[6.41,49.744],[6.408,49.741],[6.42,49.736],[6.428,49.731],[6.436,49.733],[6.447,49.742],[6.461,49.74],[6.476,49.743],[6.482,49.736],[6.488,49.736],[6.502,49.733]]]},"properties":{"LAU2":"1006","COMMUNE":"Rosport-Mompach","CANTON":"Echternach"}},
{"type":"Feature","geometry":{"type":"Polygon","coordinates":[[[6.143,49.836],[6.143,49.835],[6.147,49.832],[6.146,49.827],[6.149,49.826],[6.153,49.818],[6.163,49.823],[6.175,49.821],[6.186,49.823],[6.192,49.812],[6.189,49.806],[6.197,49.802],[6.205,49.798],[6.208,49.794],[6.217,49.79],[6.232,49.797],[6.236,49.792],[6.238,49.786],[6.249,49.785],[6.251,49.788],[6.244,49.793],[6.245,49.796],[6.258,49.803],[6.253,49.81],[6.264,49.811],[6.27,49.821],[6.256,49.823],[6.255,49.83],[6.271,49.841],[6.263,49.845],[6.269,49.849],[6.254,49.857],[6.244,49.855],[6.237,49.849],[6.219,49.849],[6.212,49.853],[6.201,49.854],[6.187,49.846],[6.181,49.846],[6.171,49.843],[6.163,49.843],[6.143,49.836]]]},"properties":{"LAU2":"0610","COMMUNE":"Vallée de l'Ernz","CANTON":"Diekirch"}},
{"type":"Feature","geometry":{"type":"Polygon","coordinates":[[[6.102,49.789],[6.09,49.794],[6.085,49.798],[6.075,49.798],[6.062,49.801],[6.062,49.807],[6.065,49.809],[6.057,49.814],[6.049,49.816],[6.041,49.823],[6.032,49.82],[6.028,49.81],[6.037,49.805],[6.015,49.795],[6.014,49.787],[6.025,49.781],[6.035,49.78],[6.04,49.775],[6.037,49.766],[6.044,49.764],[6.061,49.771],[6.067,49.771],[6.076,49.768],[6.085,49.775],[6.096,49.778],[6.096,49.783],[6.102,49.789]]]},"properties":{"LAU2":"0402","COMMUNE":"Bissen","CANTON":"Mersch"}},
{"type":"Feature","geometry":{"type":"Polygon","coordinates":[[[6.047,49.553],[6.052,49.549],[6.061,49.548],[6.072,49.551],[6.085,49.552],[6.094,49.563],[6.102,49.565],[6.104,49.57],[6.098,49.571],[6.094,49.579],[6.085,49.576],[6.079,49.577],[6.079,49.585],[6.076,49.589],[6.069,49.59],[6.047,49.585],[6.045,49.58],[6.049,49.576],[6.047,49.57],[6.04,49.57],[6.038,49.564],[6.047,49.553]]]},"properties":{"LAU2":"0207","COMMUNE":"Leudelange","CANTON":"Esch-sur-Alzette"}},
{"type":"Feature","geometry":{"type":"Polygon","coordinates":[[[6.04,50.006],[6.036,50.017],[6.041,50.017],[6.049,50.027],[6.06,50.033],[6.067,50.039],[6.069,50.043],[6.076,50.045],[6.099,50.048],[6.102,50.051],[6.117,50.057],[6.112,50.06],[6.116,50.066],[6.129,50.073],[6.116,50.075],[6.121,50.079],[6.12,50.092],[6.129,50.092],[6.126,50.102],[6.134,50.103],[6.131,50.108],[6.135,50.112],[6.128,50.116],[6.129,50.121],[6.137,50.124],[6.138,50.13],[6.131,50.13],[6.121,50.136],[6.112,50.136],[6.107,50.134],[6.104,50.13],[6.081,50.119],[6.076,50.11],[6.061,50.103],[6.056,50.099],[6.027,50.094],[6.026,50.089],[6.032,50.083],[6.026,50.08],[6.021,50.073],[6.022,50.068],[6.007,50.073],[5.998,50.071],[5.987,50.067],[5.982,50.054],[5.975,50.051],[5.969,50.044],[5.957,50.041],[5.966,50.032],[5.969,50.027],[5.976,50.024],[5.977,50.018],[5.988,50.016],[5.988,50.014],[6.001,50.011],[6.016,50.003],[6.022,49.999],[6.035,50.001],[6.04,50.006]]]},"properties":{"LAU2":"0501","COMMUNE":"Clervaux","CANTON":"Clervaux"}},
{"type":"Feature","geometry":{"type":"Polygon","coordinates":[[[6.365,49.667],[6.374,49.667],[6.385,49.657],[6.398,49.654],[6.408,49.658],[6.413,49.654],[6.422,49.654],[6.421,49.664],[6.425,49.664],[6.431,49.67],[6.447,49.679],[6.461,49.692],[6.454,49.694],[6.445,49.693],[6.432,49.699],[6.426,49.694],[6.412,49.688],[6.406,49.691],[6.399,49.684],[6.392,49.681],[6.391,49.681],[6.378,49.677],[6.37,49.667],[6.365,49.667]]]},"properties":{"LAU2":"1104","COMMUNE":"Grevenmacher","CANTON":"Grevenmacher"}},
{"type":"Feature","geometry":{"type":"Polygon","coordinates":[[[6.278,49.678],[6.272,49.675],[6.264,49.684],[6.258,49.686],[6.237,49.683],[6.223,49.686],[6.215,49.685],[6.211,49.681],[6.204,49.678],[6.197,49.67],[6.183,49.664],[6.174,49.658],[6.166,49.65],[6.165,49.645],[6.165,49.639],[6.179,49.637],[6.185,49.632],[6.179,49.626],[6.189,49.626],[6.199,49.628],[6.205,49.632],[6.209,49.626],[6.224,49.623],[6.232,49.624],[6.242,49.628],[6.248,49.635],[6.263,49.642],[6.274,49.645],[6.28,49.644],[6.29,49.647],[6.282,49.653],[6.286,49.665],[6.28,49.665],[6.277,49.669],[6.278,49.678]]]},"properties":{"LAU2":"0305","COMMUNE":"Niederanven","CANTON":"Luxembourg"}},
{"type":"Feature","geometry":{"type":"Polygon","coordinates":[[[6.023,49.696],[6.011,49.694],[6.006,49.698],[5.998,49.7],[6.004,49.705],[5.997,49.712],[5.999,49.721],[5.99,49.719],[5.988,49.724],[5.978,49.721],[5.969,49.721],[5.964,49.717],[5.937,49.704],[5.928,49.704],[5.914,49.703],[5.908,49.712],[5.887,49.709],[5.878,49.701],[5.872,49.698],[5.863,49.688],[5.862,49.681],[5.865,49.676],[5.89,49.67],[5.896,49.67],[5.897,49.676],[5.908,49.676],[5.918,49.673],[5.927,49.681],[5.937,49.681],[5.95,49.69],[5.958,49.688],[5.964,49.691],[5.976,49.693],[5.981,49.689],[5.991,49.694],[5.999,49.689],[6.009,49.691],[6.017,49.69],[6.023,49.696]]]},"properties":{"LAU2":"0103","COMMUNE":"Habscht","CANTON":"Capellen"}},
{"type":"Feature","geometry":{"type":"MultiPolygon","coordinates":[[[[5.893,49.629],[5.904,49.632],[5.903,49.636],[5.887,49.635],[5.883,49.631],[5.887,49.627],[5.893,49.629]]],[[[5.918,49.673],[5.908,49.676],[5.897,49.676],[5.896,49.67],[5.89,49.67],[5.896,49.669],[5.905,49.661],[5.905,49.655],[5.902,49.652],[5.904,49.642],[5.907,49.639],[5.915,49.638],[5.922,49.635],[5.931,49.638],[5.937,49.63],[5.96,49.642],[5.959,49.643],[5.947,49.649],[5.941,49.654],[5.928,49.661],[5.922,49.671],[5.918,49.673]]]]},"properties":{"LAU2":"0110","COMMUNE":"Steinfort","CANTON":"Capellen"}},
{"type":"Feature","geometry":{"type":"Polygon","coordinates":[[[6.062,49.5],[6.054,49.497],[6.061,49.489],[6.056,49.484],[6.058,49.479],[6.054,49.476],[6.053,49.468],[6.047,49.462],[6.05,49.46],[6.058,49.466],[6.079,49.464],[6.081,49.459],[6.092,49.453],[6.102,49.454],[6.098,49.464],[6.102,49.47],[6.109,49.473],[6.115,49.471],[6.123,49.475],[6.127,49.482],[6.128,49.494],[6.111,49.501],[6.107,49.507],[6.099,49.506],[6.093,49.5],[6.087,49.504],[6.073,49.506],[6.073,49.501],[6.062,49.5]]]},"properties":{"LAU2":"0203","COMMUNE":"Dudelange","CANTON":"Esch-sur-Alzette"}}
]}